{"type": "FeatureCollection", "features": [ {"type": "Feature", "properties": {"norad_id": 41469, "name": "IRNSS-1G", "group": "gnss", "lat": -2.3421688987131883, "lon": 72.22796332396936, "alt_km": 35772.877071493625, "timestamp": "2025-12-10T14:53:37.338767+00:00", "meta": {"OBJECT_NAME": "IRNSS-1G", "OBJECT_ID": "2016-027A", "EPOCH": "2025-12-09T19:19:22.858752", "MEAN_MOTION": 1.00250781, "ECCENTRICITY": 0.00046331, "INCLINATION": 4.7258, "RA_OF_ASC_NODE": 102.1755, "ARG_OF_PERICENTER": 335.5211, "MEAN_ANOMALY": 60.1492, "EPHEMERIS_TYPE": 0, "CLASSIFICATION_TYPE": "U", "NORAD_CAT_ID": 41469, "ELEMENT_SET_NO": 999, "REV_AT_EPOCH": 3528, "BSTAR": 0, "MEAN_MOTION_DOT": -3.35e-06, "MEAN_MOTION_DDOT": 0}, "tle": {"line1": "1 41469U 16027A   25343.80512568 -.00000335  00000+0  00000+0 0  9992", "line2": "2 41469   4.7258 102.1755 0004633 335.5211  60.1492  1.00250781 35283"}}, "geometry": {"type": "Point", "coordinates": [72.22796332396936, -2.3421688987131883]}}, {"type": "Feature", "properties": {"norad_id": 41549, "name": "GSAT0211 (GALILEO 14)", "group": "gnss", "lat": 51.39539057920381, "lon": -72.43925086185827, "alt_km": 23209.895121879752, "timestamp": "2025-12-10T14:53:37.338777+00:00", "meta": {"OBJECT_NAME": "GSAT0211 (GALILEO 14)", "OBJECT_ID": "2016-030A", "EPOCH": "2025-12-07T13:40:58.264320", "MEAN_MOTION": 1.70472997, "ECCENTRICITY": 0.00040128, "INCLINATION": 55.154, "RA_OF_ASC_NODE": 226.9659, "ARG_OF_PERICENTER": 14.4678, "MEAN_ANOMALY": 345.6377, "EPHEMERIS_TYPE": 0, "CLASSIFICATION_TYPE": "U", "NORAD_CAT_ID": 41549, "ELEMENT_SET_NO": 999, "REV_AT_EPOCH": 5940, "BSTAR": 0, "MEAN_MOTION_DOT": 2.3e-07, "MEAN_MOTION_DDOT": 0}, "tle": {"line1": "1 41549U 16030A   25341.57011880  .00000023  00000+0  00000+0 0  9991", "line2": "2 41549  55.1540 226.9659 0004012  14.4678 345.6377  1.70472997 59400"}}, "geometry": {"type": "Point", "coordinates": [-72.43925086185827, 51.39539057920381]}}, {"type": "Feature", "properties": {"norad_id": 41550, "name": "GSAT0210 (GALILEO 13)", "group": "gnss", "lat": -54.93947208236741, "lon": 144.1866466749892, "alt_km": 23224.604278393937, "timestamp": "2025-12-10T14:53:37.338787+00:00", "meta": {"OBJECT_NAME": "GSAT0210 (GALILEO 13)", "OBJECT_ID": "2016-030B", "EPOCH": "2025-12-09T00:00:58.854816", "MEAN_MOTION": 1.70473614, "ECCENTRICITY": 0.0001366, "INCLINATION": 55.1527, "RA_OF_ASC_NODE": 226.9246, "ARG_OF_PERICENTER": 244.5421, "MEAN_ANOMALY": 115.531, "EPHEMERIS_TYPE": 0, "CLASSIFICATION_TYPE": "U", "NORAD_CAT_ID": 41550, "ELEMENT_SET_NO": 999, "REV_AT_EPOCH": 5942, "BSTAR": 0, "MEAN_MOTION_DOT": 1.3e-07, "MEAN_MOTION_DDOT": 0}, "tle": {"line1": "1 41550U 16030B   25343.00068119  .00000013  00000+0  00000+0 0  9999", "line2": "2 41550  55.1527 226.9246 0001366 244.5421 115.5310  1.70473614 59420"}}, "geometry": {"type": "Point", "coordinates": [144.1866466749892, -54.93947208236741]}}, {"type": "Feature", "properties": {"norad_id": 41586, "name": "BEIDOU-2 G7 (C03)", "group": "gnss", "lat": -0.41407502427795606, "lon": 53.44022041296016, "alt_km": 35769.471753832695, "timestamp": "2025-12-10T14:53:37.338797+00:00", "meta": {"OBJECT_NAME": "BEIDOU-2 G7 (C03)", "OBJECT_ID": "2016-037A", "EPOCH": "2025-12-09T22:02:38.709312", "MEAN_MOTION": 1.00268364, "ECCENTRICITY": 0.00043475, "INCLINATION": 1.7501, "RA_OF_ASC_NODE": 67.7122, "ARG_OF_PERICENTER": 1.1282, "MEAN_ANOMALY": 91.1817, "EPHEMERIS_TYPE": 0, "CLASSIFICATION_TYPE": "U", "NORAD_CAT_ID": 41586, "ELEMENT_SET_NO": 999, "REV_AT_EPOCH": 499, "BSTAR": 0, "MEAN_MOTION_DOT": -3.5e-06, "MEAN_MOTION_DDOT": 0}, "tle": {"line1": "1 41586U 16037A   25343.91850358 -.00000350  00000+0  00000+0 0  9994", "line2": "2 41586   1.7501  67.7122 0004347   1.1282  91.1817  1.00268364  4996"}}, "geometry": {"type": "Point", "coordinates": [53.44022041296016, -0.41407502427795606]}}, {"type": "Feature", "properties": {"norad_id": 41589, "name": "EUTELSAT 117 WEST B (WAAS/PRN 131)", "group": "gnss", "lat": 0.006302349446007115, "lon": -173.99231627817676, "alt_km": 35786.21220385356, "timestamp": "2025-12-10T14:53:37.338816+00:00", "meta": {"OBJECT_NAME": "EUTELSAT 117 WEST B (WAAS/PRN 131)", "OBJECT_ID": "2016-038B", "EPOCH": "2025-12-09T14:43:38.546976", "MEAN_MOTION": 1.00271212, "ECCENTRICITY": 3.695e-05, "INCLINATION": 0.0013, "RA_OF_ASC_NODE": 169.4504, "ARG_OF_PERICENTER": 286.2539, "MEAN_ANOMALY": 86.8165, "EPHEMERIS_TYPE": 0, "CLASSIFICATION_TYPE": "U", "NORAD_CAT_ID": 41589, "ELEMENT_SET_NO": 999, "REV_AT_EPOCH": 3476, "BSTAR": 0, "MEAN_MOTION_DOT": -9e-08, "MEAN_MOTION_DDOT": 0}, "tle": {"line1": "1 41589U 16038B   25343.61364059 -.00000009  00000+0  00000+0 0  9994", "line2": "2 41589   0.0013 169.4504 0000369 286.2539  86.8165  1.00271212 34765"}}, "geometry": {"type": "Point", "coordinates": [-173.99231627817676, 0.006302349446007115]}}, {"type": "Feature", "properties": {"norad_id": 41859, "name": "GSAT0207 (GALILEO 15)", "group": "gnss", "lat": 53.18801237032107, "lon": -140.93935498828347, "alt_km": 23220.888024947013, "timestamp": "2025-12-10T14:53:37.338827+00:00", "meta": {"OBJECT_NAME": "GSAT0207 (GALILEO 15)", "OBJECT_ID": "2016-069A", "EPOCH": "2025-12-09T20:46:23.344608", "MEAN_MOTION": 1.70474355, "ECCENTRICITY": 0.00021941, "INCLINATION": 55.3802, "RA_OF_ASC_NODE": 106.3298, "ARG_OF_PERICENTER": 323.9491, "MEAN_ANOMALY": 36.0038, "EPHEMERIS_TYPE": 0, "CLASSIFICATION_TYPE": "U", "NORAD_CAT_ID": 41859, "ELEMENT_SET_NO": 999, "REV_AT_EPOCH": 5617, "BSTAR": 0, "MEAN_MOTION_DOT": 1.1e-07, "MEAN_MOTION_DDOT": 0}, "tle": {"line1": "1 41859U 16069A   25343.86554797  .00000011  00000+0  00000+0 0  9997", "line2": "2 41859  55.3802 106.3298 0002194 323.9491  36.0038  1.70474355 56173"}}, "geometry": {"type": "Point", "coordinates": [-140.93935498828347, 53.18801237032107]}}, {"type": "Feature", "properties": {"norad_id": 41860, "name": "GSAT0212 (GALILEO 16)", "group": "gnss", "lat": -10.873403859312155, "lon": -66.08727562094266, "alt_km": 23229.975463264687, "timestamp": "2025-12-10T14:53:37.338840+00:00", "meta": {"OBJECT_NAME": "GSAT0212 (GALILEO 16)", "OBJECT_ID": "2016-069B", "EPOCH": "2025-12-09T03:10:58.927872", "MEAN_MOTION": 1.70474546, "ECCENTRICITY": 0.00021877, "INCLINATION": 55.3778, "RA_OF_ASC_NODE": 106.3455, "ARG_OF_PERICENTER": 30.0277, "MEAN_ANOMALY": 329.9496, "EPHEMERIS_TYPE": 0, "CLASSIFICATION_TYPE": "U", "NORAD_CAT_ID": 41860, "ELEMENT_SET_NO": 999, "REV_AT_EPOCH": 5641, "BSTAR": 0, "MEAN_MOTION_DOT": 1e-07, "MEAN_MOTION_DDOT": 0}, "tle": {"line1": "1 41860U 16069B   25343.13262648  .00000010  00000+0  00000+0 0  9999", "line2": "2 41860  55.3778 106.3455 0002187  30.0277 329.9496  1.70474546 56413"}}, "geometry": {"type": "Point", "coordinates": [-66.08727562094266, -10.873403859312155]}}, {"type": "Feature", "properties": {"norad_id": 41861, "name": "GSAT0213 (GALILEO 17)", "group": "gnss", "lat": -26.17006757201642, "lon": 86.47757516784066, "alt_km": 23220.675173222822, "timestamp": "2025-12-10T14:53:37.338850+00:00", "meta": {"OBJECT_NAME": "GSAT0213 (GALILEO 17)", "OBJECT_ID": "2016-069C", "EPOCH": "2025-12-08T21:55:35.814144", "MEAN_MOTION": 1.70474823, "ECCENTRICITY": 0.00022753, "INCLINATION": 55.38, "RA_OF_ASC_NODE": 106.3592, "ARG_OF_PERICENTER": 283.5203, "MEAN_ANOMALY": 76.4183, "EPHEMERIS_TYPE": 0, "CLASSIFICATION_TYPE": "U", "NORAD_CAT_ID": 41861, "ELEMENT_SET_NO": 999, "REV_AT_EPOCH": 5627, "BSTAR": 0, "MEAN_MOTION_DOT": 1e-07, "MEAN_MOTION_DDOT": 0}, "tle": {"line1": "1 41861U 16069C   25342.91360896  .00000010  00000+0  00000+0 0  9999", "line2": "2 41861  55.3800 106.3592 0002275 283.5203  76.4183  1.70474823 56273"}}, "geometry": {"type": "Point", "coordinates": [86.47757516784066, -26.17006757201642]}}, {"type": "Feature", "properties": {"norad_id": 41862, "name": "GSAT0214 (GALILEO 18)", "group": "gnss", "lat": -44.26797276026359, "lon": -31.42528386988349, "alt_km": 23224.97463313656, "timestamp": "2025-12-10T14:53:37.338860+00:00", "meta": {"OBJECT_NAME": "GSAT0214 (GALILEO 18)", "OBJECT_ID": "2016-069D", "EPOCH": "2025-12-07T21:16:28.160256", "MEAN_MOTION": 1.70474622, "ECCENTRICITY": 0.00012492, "INCLINATION": 55.3777, "RA_OF_ASC_NODE": 106.3805, "ARG_OF_PERICENTER": 290.0949, "MEAN_ANOMALY": 69.8506, "EPHEMERIS_TYPE": 0, "CLASSIFICATION_TYPE": "U", "NORAD_CAT_ID": 41862, "ELEMENT_SET_NO": 999, "REV_AT_EPOCH": 5638, "BSTAR": 0, "MEAN_MOTION_DOT": 8e-08, "MEAN_MOTION_DDOT": 0}, "tle": {"line1": "1 41862U 16069D   25341.88643704  .00000008  00000+0  00000+0 0  9994", "line2": "2 41862  55.3777 106.3805 0001249 290.0949  69.8506  1.70474622 56388"}}, "geometry": {"type": "Point", "coordinates": [-31.42528386988349, -44.26797276026359]}}, {"type": "Feature", "properties": {"norad_id": 42709, "name": "SES-15 (WAAS/PRN 133)", "group": "gnss", "lat": -0.0048350033899955715, "lon": 173.8065677106112, "alt_km": 35788.70424113417, "timestamp": "2025-12-10T14:53:37.338870+00:00", "meta": {"OBJECT_NAME": "SES-15 (WAAS/PRN 133)", "OBJECT_ID": "2017-026A", "EPOCH": "2025-12-10T06:28:03.902304", "MEAN_MOTION": 1.00266567, "ECCENTRICITY": 4.735e-05, "INCLINATION": 0.0193, "RA_OF_ASC_NODE": 349.6287, "ARG_OF_PERICENTER": 310.8294, "MEAN_ANOMALY": 106.6273, "EPHEMERIS_TYPE": 0, "CLASSIFICATION_TYPE": "U", "NORAD_CAT_ID": 42709, "ELEMENT_SET_NO": 999, "REV_AT_EPOCH": 553, "BSTAR": 0, "MEAN_MOTION_DOT": 6.4e-07, "MEAN_MOTION_DDOT": 0}, "tle": {"line1": "1 42709U 17026A   25344.26948961  .00000064  00000+0  00000+0 0  9999", "line2": "2 42709   0.0193 349.6287 0000473 310.8294 106.6273  1.00266567  5538"}}, "geometry": {"type": "Point", "coordinates": [173.8065677106112, -0.0048350033899955715]}}]}